start=new Date('2022-05-16T00:00:00.000Z').valueOf();
sats=[{"FILE":"3447521","OBJECT_NAME":"STARLINK-3200","TLE_LINE1":"1 49753U 21115AF  22135.91667824  .00014516  00000-0  92854-3 0  9992","PERIOD":"95.438","TIME_SYSTEM":"UTC","LAUNCH_DATE":"2021-12-02","REV_AT_EPOCH":"130","MEAN_ANOMALY":"59.3073","GP_ID":"203651641","TLE_LINE2":"2 49753  53.2205 286.0098 0002197  34.9371  59.3073 15.08828138  1301","APOAPSIS":"541.302","NORAD_CAT_ID":"49753","MEAN_ELEMENT_THEORY":"SGP4","EPHEMERIS_TYPE":"0","MEAN_MOTION":"15.08828138","RCS_SIZE":"LARGE","DECAY_DATE":null,"OBJECT_TYPE":"PAYLOAD","PERIAPSIS":"538.262","MEAN_MOTION_DOT":"0.00014516","MEAN_MOTION_DDOT":"0.0000000000000","OBJECT_ID":"2021-115AF","ECCENTRICITY":"0.00021970","INCLINATION":"53.2205","SEMIMAJOR_AXIS":"6917.917","COUNTRY_CODE":"US","REF_FRAME":"TEME","CLASSIFICATION_TYPE":"U","CENTER_NAME":"EARTH","BSTAR":"0.00092854000000","ELEMENT_SET_NO":"999","ARG_OF_PERICENTER":"34.9371","SITE":"AFETR","RA_OF_ASC_NODE":"286.0098","EPOCH":"2022-05-15T22:00:00.999936"},{"DECAY_DATE":null,"RCS_SIZE":"LARGE","MEAN_MOTION":"15.08829187","SEMIMAJOR_AXIS":"6917.913","INCLINATION":"53.2116","ECCENTRICITY":"0.00088960","MEAN_MOTION_DDOT":"0.0000000000000","OBJECT_ID":"2021-115AG","OBJECT_TYPE":"PAYLOAD","MEAN_MOTION_DOT":"0.00033770","PERIAPSIS":"533.624","ELEMENT_SET_NO":"999","CENTER_NAME":"EARTH","CLASSIFICATION_TYPE":"U","BSTAR":"0.00212880000000","REF_FRAME":"TEME","COUNTRY_CODE":"US","EPOCH":"2022-05-15T22:00:00.999936","SITE":"AFETR","RA_OF_ASC_NODE":"276.0188","ARG_OF_PERICENTER":"318.0503","LAUNCH_DATE":"2021-12-02","TIME_SYSTEM":"UTC","PERIOD":"95.438","TLE_LINE1":"1 49754U 21115AG  22135.91667824  .00033770  00000-0  21288-2 0  9998","OBJECT_NAME":"STARLINK-3193","FILE":"3447521","MEAN_ANOMALY":"65.9929","REV_AT_EPOCH":"130","APOAPSIS":"545.933","TLE_LINE2":"2 49754  53.2116 276.0188 0008896 318.0503  65.9929 15.08829187  1305","GP_ID":"203650896","EPHEMERIS_TYPE":"0","NORAD_CAT_ID":"49754","MEAN_ELEMENT_THEORY":"SGP4"},{"NORAD_CAT_ID":"49755","MEAN_ELEMENT_THEORY":"SGP4","EPHEMERIS_TYPE":"0","TLE_LINE2":"2 49755  53.2179 286.0031 0002658  19.0068  35.2279 15.08828717  1303","GP_ID":"203651146","APOAPSIS":"541.619","REV_AT_EPOCH":"130","MEAN_ANOMALY":"35.2279","TLE_LINE1":"1 49755U 21115AH  22135.91667824  .00025301  00000-0  16025-2 0  9993","FILE":"3447521","OBJECT_NAME":"STARLINK-3210","PERIOD":"95.438","LAUNCH_DATE":"2021-12-02","TIME_SYSTEM":"UTC","ARG_OF_PERICENTER":"19.0068","RA_OF_ASC_NODE":"286.0031","SITE":"AFETR","EPOCH":"2022-05-15T22:00:00.999936","REF_FRAME":"TEME","COUNTRY_CODE":"US","ELEMENT_SET_NO":"999","CENTER_NAME":"EARTH","CLASSIFICATION_TYPE":"U","BSTAR":"0.00160250000000","OBJECT_TYPE":"PAYLOAD","PERIAPSIS":"537.941","MEAN_MOTION_DOT":"0.00025301","ECCENTRICITY":"0.00026580","OBJECT_ID":"2021-115AH","MEAN_MOTION_DDOT":"0.0000000000000","INCLINATION":"53.2179","SEMIMAJOR_AXIS":"6917.915","MEAN_MOTION":"15.08828717","RCS_SIZE":"LARGE","DECAY_DATE":null},{"MEAN_ANOMALY":"230.5659","REV_AT_EPOCH":"130","TIME_SYSTEM":"UTC","LAUNCH_DATE":"2021-12-02","OBJECT_NAME":"STARLINK-3207","FILE":"3447521","TLE_LINE1":"1 49756U 21115AJ  22135.91667824  .00019447  00000-0  12371-2 0  9998","PERIOD":"95.438","EPHEMERIS_TYPE":"0","NORAD_CAT_ID":"49756","MEAN_ELEMENT_THEORY":"SGP4","APOAPSIS":"540.885","GP_ID":"203651396","TLE_LINE2":"2 49756  53.2151 276.0195 0001582  58.6977 230.5659 15.08825343  1301","MEAN_MOTION_DDOT":"0.0000000000000","OBJECT_ID":"2021-115AJ","ECCENTRICITY":"0.00015820","INCLINATION":"53.2151","SEMIMAJOR_AXIS":"6917.925","PERIAPSIS":"538.696","OBJECT_TYPE":"PAYLOAD","MEAN_MOTION_DOT":"0.00019447","DECAY_DATE":null,"MEAN_MOTION":"15.08825343","RCS_SIZE":"LARGE","EPOCH":"2022-05-15T22:00:00.999936","ARG_OF_PERICENTER":"58.6977","RA_OF_ASC_NODE":"276.0195","SITE":"AFETR","REF_FRAME":"TEME","COUNTRY_CODE":"US","CENTER_NAME":"EARTH","CLASSIFICATION_TYPE":"U","BSTAR":"0.00123710000000","ELEMENT_SET_NO":"999"},{"REF_FRAME":"TEME","COUNTRY_CODE":"US","CLASSIFICATION_TYPE":"U","BSTAR":"0.00146230000000","CENTER_NAME":"EARTH","ELEMENT_SET_NO":"999","EPOCH":"2022-05-15T22:00:00.999936","ARG_OF_PERICENTER":"49.1069","RA_OF_ASC_NODE":"276.0235","SITE":"AFETR","DECAY_DATE":null,"RCS_SIZE":"LARGE","MEAN_MOTION":"15.08821408","MEAN_MOTION_DDOT":"0.0000000000000","OBJECT_ID":"2021-115AK","ECCENTRICITY":"0.00018130","SEMIMAJOR_AXIS":"6917.937","INCLINATION":"53.2146","OBJECT_TYPE":"PAYLOAD","MEAN_MOTION_DOT":"0.00023049","PERIAPSIS":"538.548","APOAPSIS":"541.056","GP_ID":"203652142","TLE_LINE2":"2 49757  53.2146 276.0235 0001813  49.1069 280.1590 15.08821408  1308","EPHEMERIS_TYPE":"0","NORAD_CAT_ID":"49757","MEAN_ELEMENT_THEORY":"SGP4","TIME_SYSTEM":"UTC","LAUNCH_DATE":"2021-12-02","OBJECT_NAME":"STARLINK-3197","FILE":"3447521","TLE_LINE1":"1 49757U 21115AK  22135.91667824  .00023049  00000-0  14623-2 0  9994","PERIOD":"95.439","MEAN_ANOMALY":"280.1590","REV_AT_EPOCH":"130"},{"MEAN_ANOMALY":"201.8306","REV_AT_EPOCH":"130","TIME_SYSTEM":"UTC","LAUNCH_DATE":"2021-12-02","OBJECT_NAME":"STARLINK-3194","FILE":"3447521","TLE_LINE1":"1 49758U 21115AL  22135.91667824 -.00003664  00000-0 -21218-3 0  9997","PERIOD":"95.437","EPHEMERIS_TYPE":"0","MEAN_ELEMENT_THEORY":"SGP4","NORAD_CAT_ID":"49758","APOAPSIS":"540.850","GP_ID":"203650396","TLE_LINE2":"2 49758  53.2162 276.0182 0001636  47.3967 201.8306 15.08848956  1300","OBJECT_ID":"2021-115AL","MEAN_MOTION_DDOT":"0.0000000000000","ECCENTRICITY":"0.00016360","INCLINATION":"53.2162","SEMIMAJOR_AXIS":"6917.853","OBJECT_TYPE":"PAYLOAD","PERIAPSIS":"538.586","MEAN_MOTION_DOT":"-0.00003664","DECAY_DATE":null,"MEAN_MOTION":"15.08848956","RCS_SIZE":"LARGE","EPOCH":"2022-05-15T22:00:00.999936","ARG_OF_PERICENTER":"47.3967","SITE":"AFETR","RA_OF_ASC_NODE":"276.0182","COUNTRY_CODE":"US","REF_FRAME":"TEME","CLASSIFICATION_TYPE":"U","BSTAR":"-0.00021218000000","CENTER_NAME":"EARTH","ELEMENT_SET_NO":"999"},{"OBJECT_ID":"2021-115AM","MEAN_MOTION_DDOT":"0.0000000000000","ECCENTRICITY":"0.00019460","SEMIMAJOR_AXIS":"6917.935","INCLINATION":"53.2163","MEAN_MOTION_DOT":"0.00016750","OBJECT_TYPE":"PAYLOAD","PERIAPSIS":"538.454","DECAY_DATE":null,"MEAN_MOTION":"15.08822184","RCS_SIZE":"LARGE","EPOCH":"2022-05-15T22:00:00.999936","ARG_OF_PERICENTER":"45.5027","RA_OF_ASC_NODE":"276.0195","SITE":"AFETR","COUNTRY_CODE":"US","REF_FRAME":"TEME","CENTER_NAME":"EARTH","BSTAR":"0.00106850000000","CLASSIFICATION_TYPE":"U","ELEMENT_SET_NO":"999","MEAN_ANOMALY":"263.7573","REV_AT_EPOCH":"130","TIME_SYSTEM":"UTC","LAUNCH_DATE":"2021-12-02","FILE":"3447521","OBJECT_NAME":"STARLINK-3204","TLE_LINE1":"1 49759U 21115AM  22135.91667824  .00016750  00000-0  10685-2 0  9991","PERIOD":"95.439","EPHEMERIS_TYPE":"0","MEAN_ELEMENT_THEORY":"SGP4","NORAD_CAT_ID":"49759","APOAPSIS":"541.146","GP_ID":"203650646","TLE_LINE2":"2 49759  53.2163 276.0195 0001946  45.5027 263.7573 15.08822184  1305"},{"INCLINATION":"53.2198","SEMIMAJOR_AXIS":"6917.937","ECCENTRICITY":"0.00019170","OBJECT_ID":"2021-115AN","MEAN_MOTION_DDOT":"0.0000000000000","OBJECT_TYPE":"PAYLOAD","MEAN_MOTION_DOT":"0.00033949","PERIAPSIS":"538.476","DECAY_DATE":null,"RCS_SIZE":"LARGE","MEAN_MOTION":"15.08821498","EPOCH":"2022-05-15T22:00:00.999936","RA_OF_ASC_NODE":"275.9932","SITE":"AFETR","ARG_OF_PERICENTER":"41.3816","ELEMENT_SET_NO":"999","CENTER_NAME":"EARTH","CLASSIFICATION_TYPE":"U","BSTAR":"0.00214200000000","REF_FRAME":"TEME","COUNTRY_CODE":"US","MEAN_ANOMALY":"167.8852","REV_AT_EPOCH":"130","LAUNCH_DATE":"2021-12-02","TIME_SYSTEM":"UTC","PERIOD":"95.439","TLE_LINE1":"1 49760U 21115AN  22135.91667824  .00033949  00000-0  21420-2 0  9991","OBJECT_NAME":"STARLINK-3199","FILE":"3447521","EPHEMERIS_TYPE":"0","NORAD_CAT_ID":"49760","MEAN_ELEMENT_THEORY":"SGP4","APOAPSIS":"541.128","TLE_LINE2":"2 49760  53.2198 275.9932 0001917  41.3816 167.8852 15.08821498  1301","GP_ID":"203651897"},{"EPHEMERIS_TYPE":"0","NORAD_CAT_ID":"49761","MEAN_ELEMENT_THEORY":"SGP4","APOAPSIS":"540.929","TLE_LINE2":"2 49761  53.2172 276.0226 0001752  50.6918 218.5262 15.08849384  1308","GP_ID":"203651642","MEAN_ANOMALY":"218.5262","REV_AT_EPOCH":"130","LAUNCH_DATE":"2021-12-02","TIME_SYSTEM":"UTC","PERIOD":"95.437","TLE_LINE1":"1 49761U 21115AP  22135.91667824  .00009655  00000-0  62373-3 0  9992","FILE":"3447521","OBJECT_NAME":"STARLINK-3203","EPOCH":"2022-05-15T22:00:00.999936","SITE":"AFETR","RA_OF_ASC_NODE":"276.0226","ARG_OF_PERICENTER":"50.6918","ELEMENT_SET_NO":"999","CENTER_NAME":"EARTH","CLASSIFICATION_TYPE":"U","BSTAR":"0.00062373000000","REF_FRAME":"TEME","COUNTRY_CODE":"US","SEMIMAJOR_AXIS":"6917.852","INCLINATION":"53.2172","ECCENTRICITY":"0.00017520","OBJECT_ID":"2021-115AP","MEAN_MOTION_DDOT":"0.0000000000000","OBJECT_TYPE":"PAYLOAD","MEAN_MOTION_DOT":"0.00009655","PERIAPSIS":"538.505","DECAY_DATE":null,"MEAN_MOTION":"15.08849384","RCS_SIZE":"LARGE"},{"NORAD_CAT_ID":"49762","MEAN_ELEMENT_THEORY":"SGP4","EPHEMERIS_TYPE":"0","GP_ID":"203650897","TLE_LINE2":"2 49762  53.2198 276.0104 0001908  30.4597 138.7388 15.08826501  1302","APOAPSIS":"541.107","REV_AT_EPOCH":"130","MEAN_ANOMALY":"138.7388","OBJECT_NAME":"STARLINK-3195","FILE":"3447521","TLE_LINE1":"1 49762U 21115AQ  22135.91667824  .00034810  00000-0  21953-2 0  9992","PERIOD":"95.438","TIME_SYSTEM":"UTC","LAUNCH_DATE":"2021-12-02","ARG_OF_PERICENTER":"30.4597","RA_OF_ASC_NODE":"276.0104","SITE":"AFETR","EPOCH":"2022-05-15T22:00:00.999936","REF_FRAME":"TEME","COUNTRY_CODE":"US","CENTER_NAME":"EARTH","BSTAR":"0.00219530000000","CLASSIFICATION_TYPE":"U","ELEMENT_SET_NO":"999","OBJECT_TYPE":"PAYLOAD","PERIAPSIS":"538.467","MEAN_MOTION_DOT":"0.00034810","MEAN_MOTION_DDOT":"0.0000000000000","OBJECT_ID":"2021-115AQ","ECCENTRICITY":"0.00019080","SEMIMAJOR_AXIS":"6917.922","INCLINATION":"53.2198","RCS_SIZE":"LARGE","MEAN_MOTION":"15.08826501","DECAY_DATE":null}];
